{
  "norad_id": 49741,
  "name": "STARLINK-3244",
  "history": [
    {
      "epoch": "2026-03-28T21:26:01.085568Z",
      "apogee_km": 540.7914052860142,
      "perigee_km": 538.6968092443558,
      "latitude_deg": -3.5629215365932187e-06,
      "longitude_deg": -84.89090987888753,
      "height_km": 540.4617407162575,
      "semi_major_axis_km": 6917.881107265184,
      "eccentricity": 0.00015139,
      "inclination_deg": 53.2174,
      "raan_deg": 62.9206,
      "arg_perigee_deg": 80.2204,
      "mean_anomaly_deg": 279.8959,
      "mean_motion_rev_day": 15.08839765
    },
    {
      "epoch": "2026-03-29T05:22:56.210880Z",
      "apogee_km": 540.7126415823341,
      "perigee_km": 538.7327501373784,
      "latitude_deg": 5.0080700979527565e-05,
      "longitude_deg": 154.0681019903958,
      "height_km": 540.4398266462953,
      "semi_major_axis_km": 6917.8596958598555,
      "eccentricity": 0.0001431,
      "inclination_deg": 53.2172,
      "raan_deg": 61.4357,
      "arg_perigee_deg": 79.6128,
      "mean_anomaly_deg": 280.5026,
      "mean_motion_rev_day": 15.0884677
    },
    {
      "epoch": "2026-03-30T02:02:57.327936Z",
      "apogee_km": 540.7147949574883,
      "perigee_km": 538.7847045543076,
      "latitude_deg": -7.308964840817541e-06,
      "longitude_deg": -160.65065717169534,
      "height_km": 540.5448576954018,
      "semi_major_axis_km": 6917.886749755898,
      "eccentricity": 0.0001395,
      "inclination_deg": 53.2175,
      "raan_deg": 57.5704,
      "arg_perigee_deg": 84.018,
      "mean_anomaly_deg": 276.0971,
      "mean_motion_rev_day": 15.08837919
    },
    {
      "epoch": "2026-03-30T05:13:43.553280Z",
      "apogee_km": 540.7168942936723,
      "perigee_km": 538.7758745736674,
      "latitude_deg": 4.191594946512083e-06,
      "longitude_deg": 150.93156821800062,
      "height_km": 540.5383655113602,
      "semi_major_axis_km": 6917.88338443367,
      "eccentricity": 0.00014029,
      "inclination_deg": 53.2177,
      "raan_deg": 56.9758,
      "arg_perigee_deg": 83.8656,
      "mean_anomaly_deg": 276.2496,
      "mean_motion_rev_day": 15.0883902
    },
    {
      "epoch": "2026-03-30T14:46:02.637984Z",
      "apogee_km": 540.7172359650249,
      "perigee_km": 538.7914333752788,
      "latitude_deg": -4.339031799085407e-06,
      "longitude_deg": 5.675504929648664,
      "height_km": 540.5706465939039,
      "semi_major_axis_km": 6917.891334670151,
      "eccentricity": 0.00013919,
      "inclination_deg": 53.2163,
      "raan_deg": 55.191,
      "arg_perigee_deg": 85.2796,
      "mean_anomaly_deg": 274.8355,
      "mean_motion_rev_day": 15.08836419
    },
    {
      "epoch": "2026-03-30T21:07:35.235552Z",
      "apogee_km": 540.7459789988925,
      "perigee_km": 538.7530742483032,
      "latitude_deg": 2.4160706291969567e-05,
      "longitude_deg": -91.16005387813304,
      "height_km": 540.5698221726732,
      "semi_major_axis_km": 6917.886526623598,
      "eccentricity": 0.00014404,
      "inclination_deg": 53.2177,
      "raan_deg": 54.0024,
      "arg_perigee_deg": 85.6642,
      "mean_anomaly_deg": 274.4515,
      "mean_motion_rev_day": 15.08837992
    },
    {
      "epoch": "2026-03-31T06:39:52.946496Z",
      "apogee_km": 540.6588529177598,
      "perigee_km": 538.7550622606313,
      "latitude_deg": -2.9104391537944734e-05,
      "longitude_deg": 123.58878931313657,
      "height_km": 540.532356238534,
      "semi_major_axis_km": 6917.843957589195,
      "eccentricity": 0.0001376,
      "inclination_deg": 53.217,
      "raan_deg": 52.2168,
      "arg_perigee_deg": 85.7672,
      "mean_anomaly_deg": 274.3477,
      "mean_motion_rev_day": 15.08851919
    },
    {
      "epoch": "2026-04-01T14:27:37.169856Z",
      "apogee_km": 540.7777399402048,
      "perigee_km": 538.7480281142307,
      "latitude_deg": 5.542473765566355e-06,
      "longitude_deg": -0.5982467843845526,
      "height_km": 540.5975538713232,
      "semi_major_axis_km": 6917.899884027218,
      "eccentricity": 0.0001467,
      "inclination_deg": 53.2187,
      "raan_deg": 46.2698,
      "arg_perigee_deg": 86.5525,
      "mean_anomaly_deg": 273.5635,
      "mean_motion_rev_day": 15.08833622
    },
    {
      "epoch": "2026-04-02T14:18:23.392512Z",
      "apogee_km": 540.5761238302084,
      "perigee_km": 538.8631241729727,
      "latitude_deg": 4.964727734474058e-05,
      "longitude_deg": -3.729535010000112,
      "height_km": 540.4873713280214,
      "semi_major_axis_km": 6917.85662400159,
      "eccentricity": 0.00012381,
      "inclination_deg": 53.2177,
      "raan_deg": 41.8104,
      "arg_perigee_deg": 81.3933,
      "mean_anomaly_deg": 278.72,
      "mean_motion_rev_day": 15.08847775
    },
    {
      "epoch": "2026-04-03T20:30:44.078112Z",
      "apogee_km": 540.7859432109362,
      "perigee_km": 538.7354783294641,
      "latitude_deg": 4.053355145339228e-05,
      "longitude_deg": -103.71563747779854,
      "height_km": 541.1676232204646,
      "semi_major_axis_km": 6917.8977107702,
      "eccentricity": 0.0001482,
      "inclination_deg": 53.2183,
      "raan_deg": 36.151,
      "arg_perigee_deg": 119.8973,
      "mean_anomaly_deg": 240.2167,
      "mean_motion_rev_day": 15.08834333
    },
    {
      "epoch": "2026-04-04T06:03:03.602592Z",
      "apogee_km": 540.6577640196447,
      "perigee_km": 538.9025500785592,
      "latitude_deg": 4.014347403973263e-05,
      "longitude_deg": 111.03466716002823,
      "height_km": 540.6842845511314,
      "semi_major_axis_km": 6917.917157049102,
      "eccentricity": 0.00012686,
      "inclination_deg": 53.2181,
      "raan_deg": 34.3744,
      "arg_perigee_deg": 90.5374,
      "mean_anomaly_deg": 269.5764,
      "mean_motion_rev_day": 15.08827971
    },
    {
      "epoch": "2026-04-05T12:15:22.243104Z",
      "apogee_km": 540.6283124997472,
      "perigee_km": 538.8316040933387,
      "latitude_deg": -1.4787654836997477e-05,
      "longitude_deg": 11.068573314736119,
      "height_km": 540.9311773388548,
      "semi_major_axis_km": 6917.866958296543,
      "eccentricity": 0.00012986,
      "inclination_deg": 53.2185,
      "raan_deg": 28.7265,
      "arg_perigee_deg": 109.861,
      "mean_anomaly_deg": 250.2522,
      "mean_motion_rev_day": 15.08844394
    }
  ]
}